#cP2017  5 23  0  0  0.00000000      96 ORBIT IGS14 HLM  IGS
## 1950 172800.00000000   900.00000000 57896 0.0000000000000
+   32   G01G02G03G04G05G06G07G08G09G10G11G12G13G14G15G16G17
+        G18G19G20G21G22G23G24G25G26G27G28G29G30G31G32  0  0
+          0  0  0  0  0  0  0  0  0  0  0  0  0  0  0  0  0
+          0  0  0  0  0  0  0  0  0  0  0  0  0  0  0  0  0
+          0  0  0  0  0  0  0  0  0  0  0  0  0  0  0  0  0
++         2  2  2  3  2  2  2  2  2  2  2  2  2  2  2  2  2
++         3  2  2  2  2  2  2  2  2  2  2  2  2  2  2  0  0
++         0  0  0  0  0  0  0  0  0  0  0  0  0  0  0  0  0
++         0  0  0  0  0  0  0  0  0  0  0  0  0  0  0  0  0
++         0  0  0  0  0  0  0  0  0  0  0  0  0  0  0  0  0
%c G  cc GPS ccc cccc cccc cccc cccc ccccc ccccc ccccc ccccc
%c cc cc ccc ccc cccc cccc cccc cccc ccccc ccccc ccccc ccccc
%f  1.2500000  1.025000000  0.00000000000  0.000000000000000
%f  0.0000000  0.000000000  0.00000000000  0.000000000000000
%i    0    0    0    0      0      0      0      0         0
%i    0    0    0    0      0      0      0      0         0
/* RAPID ORBIT COMBINATION FROM WEIGHTED AVERAGE OF:        
/* cod emr esa gfz jpl ngs sio usn whu                      
/* REFERENCED TO IGS TIME (IGST) AND TO WEIGHTED MEAN POLE: 
/* PCV:IGS14_1930 OL/AL:FES2004  NONE     Y  ORB:CMB CLK:CMB
*  2017  5 23  0  0  0.00000000
PG01  22214.284033  13092.337829   6831.079027     55.004303  5  5  7 132       
PG02 -11591.784739 -20710.332310  12751.113383    414.164903 10  5  8 110       
PG03  14234.669218   6105.398730  21578.500060    -99.117174  6  2  7 126       
PG04   6073.009564  21821.369037  14686.073042    -18.959125     8  1  63       
PG05  -3944.448674 -23773.987164 -11017.711243    -44.804732  9  9  9 115       
PG06   3144.361040 -16208.890612  20823.791517    354.430125  5  6  1  93       
PG07  19896.737309   1417.820946 -17574.158014    348.431120 10  7  2 115       
PG08  15553.758553   8784.888146 -19635.220999    -60.635603  7  9  8 147       
PG09  25346.113853  -7732.041070   1881.792897    368.884269  5  3  5 109       
PG10 -10778.128337  22354.703906  -9273.404525    -46.695359  4  7  6 126       
PG11  23880.716971  11046.312336  -3947.053238   -689.997976  8  7 10 149       
PG12 -10806.069518 -12630.777661  20606.057358    383.022731 10  7  6 112       
PG13  -7694.402083 -13486.325630 -21659.729104    -82.753602 10 10  9 123       
PG14  -9667.164902  16192.606533  18907.827157    -71.696775 10  7  5 126       
PG15 -19562.097943  -5692.165056 -17393.431511   -350.401460  8  9  8 133       
PG16    897.838368  24052.816110 -10888.276222     33.711147  8  7  8  97       
PG17  18130.571121 -14531.844254  13078.902709   -178.377749  6  5  4 103       
PG18 -14291.608011  14959.088804 -15961.774339    616.731525  9  7  7 145       
PG19  11791.791583 -15396.057733  18000.987722   -502.660289  7  5  6 104       
PG20 -13957.282847 -11075.554962 -19842.692812    473.255443  9 10  5 109       
PG21 -16618.891740   4879.681490 -19384.906963   -505.453083  7  9  6 131       
PG22  11506.906459  15973.933826  18053.368090      1.491449  7  7  5 113       
PG23  23787.865876   1030.830049  12456.575005   -212.266936  8  4  5  90       
PG24 -22225.406167 -14202.689661   4000.088230    -35.207184 11  9  9 131       
PG25 -15290.271427   3605.441050  21227.286949   -391.856533  7  5  7 132       
PG26  -4367.770021  26148.036850   -357.973216   -501.214843  8  4  6 103       
PG27   3135.341575  14676.368614 -21955.546040    262.357538  4  6  8 139       
PG28  13139.375294 -19796.026078 -11240.633673    614.927141  7  6  4 123       
PG29 -25797.611847   4124.915797   4681.174109    601.958967  8  9  6 126       
PG30  11257.548196 -10655.854905 -21574.484575    156.159179  4  8  6 106       
PG31  -1871.447599  17144.331038  20156.599452    199.427023  9  5  6 122       
PG32 -16676.682633  15847.086315  13251.651457   -420.923948  5  5  6 121       
*  2017  5 23  0 15  0.00000000
PG01  22570.873559  13654.183020   4068.567580     55.004773  5  5  7 132       
PG02 -10264.407249 -19985.001868  14918.587954    414.157730  9  5  8 112       
PG03  13810.179768   8507.114885  21037.192089    -99.115355  6  1  7 124       
PG04   4842.862021  20621.899387  16727.489929    -18.957927  1  3    102       
PG05  -3516.553597 -24838.761668  -8488.141614    -44.803375  9  8  9 109       
PG06   5067.466233 -14744.275799  21523.622984    354.434592  4  6     95       
PG07  21276.665762   2762.560071 -15758.906645    348.427181 10  7  2 111       
PG08  13435.104771   9722.008494 -20716.116581    -60.636977  6  9  8 145       
PG09  25094.758585  -7339.867937   4690.048647    368.891485  4  3  4  95       
PG10 -10827.411399  21121.138361 -11773.794438    -46.686140  3  7  6 116       
PG11  23240.521973  11284.976226  -6593.408733   -690.000317  8  5  9 148       
PG12 -10252.397432 -14872.618678  19383.733358    383.022079  9  6  5 116       
PG13  -5310.720186 -14129.727818 -21968.852980    -82.754604  9  9  8 102       
PG14 -11649.500667  16640.870819  17295.070565    -71.698132 10  6  6 113       
PG15 -17783.362162  -6707.510541 -18858.999962   -350.402100  7  9  7 125       
PG16    472.218297  25068.279083  -8240.786945     33.711735  9  6  8 100       
PG17  19426.062605 -14784.151403  10627.481946   -178.376226  6  4  3  91       
PG18 -14303.504264  12904.702672 -17618.101826    616.733305  9  7  7 141       
PG19  13742.967265 -15817.483665  16213.429936   -502.658796  7  5  6 105       
PG20 -13683.608202 -13250.119636 -18656.921214    473.256706  9 10  5 100       
PG21 -18375.113491   3384.321278 -18138.198614   -505.450961  8  9  5 120       
PG22  11087.491629  17882.785802  16425.050737      1.480463  8  7  6 104       
PG23  22464.947910   1771.288108  14638.606594   -212.267561  7  4  4  66       
PG24 -22302.343315 -14609.318688   1209.626285    -35.207297 10  8  9 123       
PG25 -14946.914374   1138.351602  21756.398948   -391.862405  7  4  6 129       
PG26  -4615.677115  25988.017316   2495.366934   -501.210689  8  5  6 104       
PG27    816.479401  15544.041030 -21543.303404    262.363504  4  5  8 139       
PG28  12942.996706 -18288.784737 -13634.545581    614.929647  8  6  4 115       
PG29 -25194.589125   3729.760382   7467.049843    601.955984  8  8  6 119       
PG30  13061.748617  -8987.843346 -21327.530011    156.158349  5  8  6  84       
PG31  -3717.774695  15680.911875  21108.149284    199.424763  8  5  5 110       
PG32 -18041.361825  16148.631913  10880.217319   -420.933114  6  5  6 112       
*  2017  5 23  0 30  0.00000000
PG01  22701.673757  14010.891919   1237.039875     55.005231  4  5  7 128       
PG02  -8713.331710 -19205.866840  16840.802676    414.150610  8  5  7 110       
PG03  13518.855871  10845.981987  20134.060679    -99.113546  6  2  6 123       
PG04   3391.530315  19348.790146  18494.577860    -18.958574  4  1  5  40       
PG05  -3164.645344 -25629.898302  -5811.226220    -44.801845  8  8  8 102       
PG06   7113.110208 -13350.403561  21853.805788    354.439227  5  5     91       
PG07  22547.030436   3897.749503 -13674.282422    348.423286 10  6  3 110       
PG08  11275.547052  10814.182696 -21439.586829    -60.638775  6  8  8 140       
PG09  24580.169304  -6802.496245   7417.607049    368.898681  4  3  2  91       
PG10 -10915.003874  19620.779208 -14070.046352    -46.676934  3  6  5 120       
PG11  22333.037075  11481.715799  -9127.640513   -690.002475  8     9 142       
PG12  -9850.954509 -16983.136095  17825.426507    383.021582  9  6  4 113       
PG13  -2952.580402 -14904.727817 -21903.974682    -82.756128  9  9  7 102       
PG14 -13422.616139  17124.629439  15388.642243    -71.699370  9  6  5 108       
PG15 -15925.707036  -7877.886153 -20007.763991   -350.402580  6  9  7 123       
PG16    155.190044  25800.129900  -5448.768839     33.712325  9  4  8 114       
PG17  20442.079811 -14999.090454   7994.512919   -178.374724  7  4  3  99       
PG18 -14398.750909  10678.778117 -18955.184417    616.734245  8  7  8 137       
PG19  15457.084293 -16273.274802  14144.745169   -502.657360  7  5  6 113       
PG20 -13512.419852 -15285.242764 -17153.774436    473.257787  8 10  6 101       
PG21 -20059.345950   2067.732898 -16560.324185   -505.448863  9  9  5 101       
PG22  10766.790048  19613.639921  14518.269861      1.469493  8  6  6  75       
PG23  20972.938173   2674.896654  16577.355262   -212.268002  5  4  4  84       
PG24 -22138.056856 -14836.394834  -1601.365496    -35.206629  9  8  9 121       
PG25 -14733.952681  -1380.339751  21905.213074   -391.868267  6  4  5 128       
PG26  -4844.692941  25520.878954   5305.526362   -501.206603  7  5  6 102       
PG27  -1392.449229  16508.914834 -20761.123043    262.369465  4  4  8 136       
PG28  12786.679393 -16509.856311 -15784.762291    614.932269  8  7  4 115       
PG29 -24326.342715   3189.547603  10124.133628    601.952728  8  8  7 140       
PG30  14908.616867  -7443.878968 -20714.227365    156.157422  7  8  6 106       
PG31  -5705.184830  14266.654376  21696.365665    199.422565  8  5  4 102       
PG32 -19135.746602  16402.535501   8321.216395   -420.942299  6  5  6 118       
EOF
